$$SOE
2460721.500000000, A.D. 2025-Feb-15 00:00:00.0000, 3.366041997317222E+08, -1.010925825836543E+08, -3.876250251970595E+07,
2460728.500000000, A.D. 2025-Feb-22 00:00:00.0000, 3.376230641811841E+08, -8.901387189007437E+07, -3.757054840311623E+07,
2460735.500000000, A.D. 2025-Mar-01 00:00:00.0000, 3.382634973280717E+08, -7.683547139330079E+07, -3.633648637375551E+07,
2460742.500000000, A.D. 2025-Mar-08 00:00:00.0000, 3.385169144086015E+08, -6.456924347462565E+07, -3.506085473893404E+07,
2460749.500000000, A.D. 2025-Mar-15 00:00:00.0000, 3.383749963683564E+08, -5.222768792077821E+07, -3.374428145827322E+07,
2460756.500000000, A.D. 2025-Mar-22 00:00:00.0000, 3.378297333447507E+08, -3.982395127083796E+07, -3.238748874601328E+07,
2460763.500000000, A.D. 2025-Mar-29 00:00:00.0000, 3.368734725564067E+08, -2.737183556703774E+07, -3.099129793393872E+07,
2460770.500000000, A.D. 2025-Apr-05 00:00:00.0000, 3.354989708466946E+08, -1.488580292843570E+07, -2.955663431531971E+07,
2460777.500000000, A.D. 2025-Apr-12 00:00:00.0000, 3.336994498283957E+08, -2.380975379688531E+06, -2.808453172546137E+07,
2460784.500000000, A.D. 2025-Apr-19 00:00:00.0000, 3.314686532553167E+08, 1.012686966286080E+07, -2.657613684780001E+07,
2460791.500000000, A.D. 2025-Apr-26 00:00:00.0000, 3.288009066374607E+08, 2.262130853378772E+07, -2.503271321438783E+07,
2460798.500000000, A.D. 2025-May-03 00:00:00.0000, 3.256911788841486E+08, 3.508528560006456E+07, -2.345564483053043E+07,
2460805.500000000, A.D. 2025-May-10 00:00:00.0000, 3.221351455947753E+08, 4.750113317313430E+07, -2.184643934055501E+07,
2460812.500000000, A.D. 2025-May-17 00:00:00.0000, 3.181292535413048E+08, 5.985059747392214E+07, -2.020673065154011E+07,
2460819.500000000, A.D. 2025-May-24 00:00:00.0000, 3.136707859371568E+08, 7.211487102548736E+07, -1.853828094181666E+07,
2460826.500000000, A.D. 2025-May-31 00:00:00.0000, 3.087579282390102E+08, 8.427463216226320E+07, -1.684298197123299E+07,
2460833.500000000, A.D. 2025-Jun-07 00:00:00.0000, 3.033898333132341E+08, 9.631009317679200E+07, -1.512285546073801E+07,
2460840.500000000, A.D. 2025-Jun-14 00:00:00.0000, 2.975666827591758E+08, 1.082010566811885E+08, -1.338005228303541E+07,
2460847.500000000, A.D. 2025-Jun-21 00:00:00.0000, 2.912897446983082E+08, 1.199269770503996E+08, -1.161685075279366E+07,
2460854.500000000, A.D. 2025-Jun-28 00:00:00.0000, 2.845614301701730E+08, 1.314670287268148E+08, -9.835654075158492E+06,
2460861.500000000, A.D. 2025-Jul-05 00:00:00.0000, 2.773853455739992E+08, 1.428001834307048E+08, -8.038986562105440E+06,
2460868.500000000, A.D. 2025-Jul-12 00:00:00.0000, 2.697663388931220E+08, 1.539052952138008E+08, -6.229488511018567E+06,
2460875.500000000, A.D. 2025-Jul-19 00:00:00.0000, 2.617105388115600E+08, 1.647611923619480E+08, -4.409909763759531E+06,
2460882.500000000, A.D. 2025-Jul-26 00:00:00.0000, 2.532253858678238E+08, 1.753467754993420E+08, -2.583101942958474E+06,
2460889.500000000, A.D. 2025-Aug-02 00:00:00.0000, 2.443196546888084E+08, 1.856411211460963E+08, -7.520093645860553E+05,
2460896.500000000, A.D. 2025-Aug-09 00:00:00.0000, 2.350034663735073E+08, 1.956235897646924E+08, 1.080341350129053E+06,
2460903.500000000, A.D. 2025-Aug-16 00:00:00.0000, 2.252882902465602E+08, 2.052739371132142E+08, 2.910852904253945E+06,
2460910.500000000, A.D. 2025-Aug-23 00:00:00.0000, 2.151869345505320E+08, 2.145724276573836E+08, 4.736370095433623E+06,
2460917.500000000, A.D. 2025-Aug-30 00:00:00.0000, 2.047135258596816E+08, 2.234999493672208E+08, 6.553693651527002E+06,
2460924.500000000, A.D. 2025-Sep-06 00:00:00.0000, 1.938834754543033E+08, 2.320381293980459E+08, 8.359595212432340E+06,
2460931.500000000, A.D. 2025-Sep-13 00:00:00.0000, 1.827134308622573E+08, 2.401694466010926E+08, 1.015083325348711E+07,
2460938.500000000, A.D. 2025-Sep-20 00:00:00.0000, 1.712212159772370E+08, 2.478773376140894E+08, 1.192416933710882E+07,
2460945.500000000, A.D. 2025-Sep-27 00:00:00.0000, 1.594257611913675E+08, 2.551462980167700E+08, 1.367638464796215E+07,
2460952.500000000, A.D. 2025-Oct-04 00:00:00.0000, 1.473470221358254E+08, 2.619619775064415E+08, 1.540429682275961E+07,
2460959.500000000, A.D. 2025-Oct-11 00:00:00.0000, 1.350058875102455E+08, 2.683112666653695E+08, 1.710477680357502E+07,
2460966.500000000, A.D. 2025-Oct-18 00:00:00.0000, 1.224240773709242E+08, 2.741823736968219E+08, 1.877476543283084E+07,
2460973.500000000, A.D. 2025-Oct-25 00:00:00.0000, 1.096240333099729E+08, 2.795648899661294E+08, 2.041128954584587E+07,
2460980.500000000, A.D. 2025-Nov-01 00:00:00.0000, 9.662880203151405E+07, 2.844498433959345E+08, 2.201147733394988E+07,
2460987.500000000, A.D. 2025-Nov-08 00:00:00.0000, 8.346191396168919E+07, 2.888297389538643E+08, 2.357257276154907E+07,
2460994.500000000, A.D. 2025-Nov-15 00:00:00.0000, 7.014725873473923E+07, 2.926985856993818E+08, 2.509194882745059E+07,
2461001.500000000, A.D. 2025-Nov-22 00:00:00.0000, 5.670895969834952E+07, 2.960519104029979E+08, 2.656711948489787E+07,
2461008.500000000, A.D. 2025-Nov-29 00:00:00.0000, 4.317124902823821E+07, 2.988867589367856E+08, 2.799575018924010E+07,
2461015.500000000, A.D. 2025-Dec-06 00:00:00.0000, 2.955834287793737E+07, 3.012016856131860E+08, 2.937566716255504E+07,
2461022.500000000, A.D. 2025-Dec-13 00:00:00.0000, 1.589431859879229E+07, 3.029967276405244E+08, 3.070486498311692E+07,
2461029.500000000, A.D. 2025-Dec-20 00:00:00.0000, 2.202998991523209E+06, 3.042733664982355E+08, 3.198151222211652E+07,
2461036.500000000, A.D. 2025-Dec-27 00:00:00.0000, -1.149215616061432E+07, 3.050344797907258E+08, 3.320395542764612E+07,
2461043.500000000, A.D. 2026-Jan-03 00:00:00.0000, -2.516815160512361E+07, 3.052842840687827E+08, 3.437072155867471E+07,
2461050.500000000, A.D. 2026-Jan-10 00:00:00.0000, -3.880255014898638E+07, 3.050282691663279E+08, 3.548051885375181E+07,
2461057.500000000, A.D. 2026-Jan-17 00:00:00.0000, -5.237355725873541E+07, 3.042731252740554E+08, 3.653223618436787E+07,
2461064.500000000, A.D. 2026-Jan-24 00:00:00.0000, -6.586009615077455E+07, 3.030266641292958E+08, 3.752494099025406E+07,
2461071.500000000, A.D. 2026-Jan-31 00:00:00.0000, -7.924187304822168E+07, 3.012977356748479E+08, 3.845787591462462E+07,
2461078.500000000, A.D. 2026-Feb-07 00:00:00.0000, -9.249943243589407E+07, 2.990961414576533E+08, 3.933045426229109E+07,
2461085.500000000, A.D. 2026-Feb-14 00:00:00.0000, -1.056142021333180E+08, 2.964325460193076E+08, 4.014225439712997E+07,
2461092.500000000, A.D. 2026-Feb-21 00:00:00.0000, -1.185685280337639E+08, 2.933183880398318E+08, 4.089301323543894E+07,
2461099.500000000, A.D. 2026-Feb-28 00:00:00.0000, -1.313456999711786E+08, 2.897657934763851E+08, 4.158261917507763E+07,
2461106.500000000, A.D. 2026-Mar-07 00:00:00.0000, -1.439299712605148E+08, 2.857874897244667E+08, 4.221110463317457E+07,
2461113.500000000, A.D. 2026-Mar-14 00:00:00.0000, -1.563065697093881E+08, 2.813967193097193E+08, 4.277863788314876E+07,
2461120.500000000, A.D. 2026-Mar-21 00:00:00.0000, -1.684616989754831E+08, 2.766071567273573E+08, 4.328551439502993E+07,
2461127.500000000, A.D. 2026-Mar-28 00:00:00.0000, -1.803825329805815E+08, 2.714328300697590E+08, 4.373214807077451E+07,
2461134.500000000, A.D. 2026-Apr-04 00:00:00.0000, -1.920572047029220E+08, 2.658880469596295E+08, 4.411906246204720E+07,
2461141.500000000, A.D. 2026-Apr-11 00:00:00.0000, -2.034747898021147E+08, 2.599873247910081E+08, 4.444688201524530E+07,
2461148.500000000, A.D. 2026-Apr-18 00:00:00.0000, -2.146252856400738E+08, 2.537453255280197E+08, 4.471632341655381E+07,
2461155.500000000, A.D. 2026-Apr-25 00:00:00.0000, -2.254995863545568E+08, 2.471767952366787E+08, 4.492818711027068E+07,
2461162.500000000, A.D. 2026-May-02 00:00:00.0000, -2.360894546254362E+08, 2.402965083947586E+08, 4.508334904969987E+07,
2461169.500000000, A.D. 2026-May-09 00:00:00.0000, -2.463874906391090E+08, 2.331192169127432E+08, 4.518275271672356E+07,
2461176.500000000, A.D. 2026-May-16 00:00:00.0000, -2.563870984549800E+08, 2.256596039375216E+08, 4.522740142816979E+07,
2461183.500000000, A.D. 2026-May-23 00:00:00.0000, -2.660824502529095E+08, 2.179322433366627E+08, 4.521835103829840E+07,
2461190.500000000, A.D. 2026-May-30 00:00:00.0000, -2.754684510230790E+08, 2.099515650110495E+08, 4.515670327559589E+07,
2461197.500000000, A.D. 2026-Jun-06 00:00:00.0000, -2.845407044513761E+08, 2.017318225576687E+08, 4.504359949007628E+07,
2461204.500000000, A.D. 2026-Jun-13 00:00:00.0000, -2.932954767173718E+08, 1.932870632489755E+08, 4.488021449928895E+07,
2461211.500000000, A.D. 2026-Jun-20 00:00:00.0000, -3.017296590478971E+08, 1.846311030044550E+08, 4.466775082155450E+07,
2461218.500000000, A.D. 2026-Jun-27 00:00:00.0000, -3.098407310250351E+08, 1.757775057651058E+08, 4.440743342395478E+07,
2461225.500000000, A.D. 2026-Jul-04 00:00:00.0000, -3.176267248950278E+08, 1.667395662433208E+08, 4.410050491537655E+07,
2461232.500000000, A.D. 2026-Jul-11 00:00:00.0000, -3.250861908238076E+08, 1.575302956561853E+08, 4.374822113897815E+07,
2461239.500000000, A.D. 2026-Jul-18 00:00:00.0000, -3.322181631692598E+08, 1.481624102072200E+08, 4.335184714297797E+07,
2461246.500000000, A.D. 2026-Jul-25 00:00:00.0000, -3.390221278763543E+08, 1.386483220642132E+08, 4.291265351113544E+07,
2461253.500000000, A.D. 2026-Aug-01 00:00:00.0000, -3.454979910484138E+08, 1.290001325391946E+08, 4.243191302668586E+07,
2461260.500000000, A.D. 2026-Aug-08 00:00:00.0000, -3.516460485546162E+08, 1.192296272002341E+08, 4.191089762832528E+07,
2461267.500000000, A.D. 2026-Aug-15 00:00:00.0000, -3.574669563100811E+08, 1.093482731435412E+08, 4.135087563765858E+07,
2461274.500000000, A.D. 2026-Aug-22 00:00:00.0000, -3.629617020209470E+08, 9.936721943813249E+07, 4.075310940815429E+07,
2461281.500000000, A.D. 2026-Aug-29 00:00:00.0000, -3.681315807001162E+08, 8.929729917549238E+07, 4.011885347411057E+07,
2461288.500000000, A.D. 2026-Sep-05 00:00:00.0000, -3.729781718224564E+08, 7.914903007832828E+07, 3.944935275084485E+07,
$$EOE